STARLINK-3597           
1 51898U 22022AY  26068.19580093 -.00000402  00000+0 -71906-5 0  9991
2 51898  53.2196   1.3366 0001495  92.6992 267.4172 15.08844101223226
LEMUR-2-KREMPEL-BRO2    
1 63353U 25061C   26068.86379735  .00007837  00000+0  44347-3 0  9993
2 63353  97.5616  45.5365 0017925 236.8576 123.0936 15.13192951 52586
